<?xml version="1.0" encoding="UTF-8"?>
<ndm xmlns:xsi="http://www.w3.org/2001/XMLSchema-instance" xsi:noNamespaceSchemaLocation="https://sanaregistry.org/r/ndmxml_unqualified/ndmxml-2.0.0-master-2.0.xsd">
<omm id="CCSDS_OMM_VERS" version="2.0">
<header><CREATION_DATE/><ORIGINATOR/></header><body><segment><metadata><OBJECT_NAME>QIANFAN-49</OBJECT_NAME><OBJECT_ID>2024-232P</OBJECT_ID><CENTER_NAME>EARTH</CENTER_NAME><REF_FRAME>TEME</REF_FRAME><TIME_SYSTEM>UTC</TIME_SYSTEM><MEAN_ELEMENT_THEORY>SGP4</MEAN_ELEMENT_THEORY></metadata><data><meanElements><EPOCH>2025-09-30T21:16:54.192576</EPOCH><MEAN_MOTION>13.50975090</MEAN_MOTION><ECCENTRICITY>.0015339</ECCENTRICITY><INCLINATION>88.9999</INCLINATION><RA_OF_ASC_NODE>48.5735</RA_OF_ASC_NODE><ARG_OF_PERICENTER>51.3100</ARG_OF_PERICENTER><MEAN_ANOMALY>308.9420</MEAN_ANOMALY></meanElements><tleParameters><EPHEMERIS_TYPE>0</EPHEMERIS_TYPE><CLASSIFICATION_TYPE>U</CLASSIFICATION_TYPE><NORAD_CAT_ID>62250</NORAD_CAT_ID><ELEMENT_SET_NO>999</ELEMENT_SET_NO><REV_AT_EPOCH>5800</REV_AT_EPOCH><BSTAR>.30785E-3</BSTAR><MEAN_MOTION_DOT>.211E-5</MEAN_MOTION_DOT><MEAN_MOTION_DDOT>0</MEAN_MOTION_DDOT></tleParameters></data></segment></body></omm>
<omm id="CCSDS_OMM_VERS" version="2.0">
<header><CREATION_DATE/><ORIGINATOR/></header><body><segment><metadata><OBJECT_NAME>QIANFAN-50</OBJECT_NAME><OBJECT_ID>2024-232Q</OBJECT_ID><CENTER_NAME>EARTH</CENTER_NAME><REF_FRAME>TEME</REF_FRAME><TIME_SYSTEM>UTC</TIME_SYSTEM><MEAN_ELEMENT_THEORY>SGP4</MEAN_ELEMENT_THEORY></metadata><data><meanElements><EPOCH>2025-09-27T20:59:42.585216</EPOCH><MEAN_MOTION>13.50969182</MEAN_MOTION><ECCENTRICITY>.00172458</ECCENTRICITY><INCLINATION>88.9997</INCLINATION><RA_OF_ASC_NODE>48.8819</RA_OF_ASC_NODE><ARG_OF_PERICENTER>60.0492</ARG_OF_PERICENTER><MEAN_ANOMALY>300.2369</MEAN_ANOMALY></meanElements><tleParameters><EPHEMERIS_TYPE>0</EPHEMERIS_TYPE><CLASSIFICATION_TYPE>U</CLASSIFICATION_TYPE><NORAD_CAT_ID>62251</NORAD_CAT_ID><ELEMENT_SET_NO>999</ELEMENT_SET_NO><REV_AT_EPOCH>5762</REV_AT_EPOCH><BSTAR>.30400135E-3</BSTAR><MEAN_MOTION_DOT>.208E-5</MEAN_MOTION_DOT><MEAN_MOTION_DDOT>0</MEAN_MOTION_DDOT></tleParameters></data></segment></body></omm>
<omm id="CCSDS_OMM_VERS" version="2.0">
<header><CREATION_DATE/><ORIGINATOR/></header><body><segment><metadata><OBJECT_NAME>QIANFAN-51</OBJECT_NAME><OBJECT_ID>2024-232R</OBJECT_ID><CENTER_NAME>EARTH</CENTER_NAME><REF_FRAME>TEME</REF_FRAME><TIME_SYSTEM>UTC</TIME_SYSTEM><MEAN_ELEMENT_THEORY>SGP4</MEAN_ELEMENT_THEORY></metadata><data><meanElements><EPOCH>2025-09-30T21:28:43.847616</EPOCH><MEAN_MOTION>13.50972587</MEAN_MOTION><ECCENTRICITY>.0014612</ECCENTRICITY><INCLINATION>88.9999</INCLINATION><RA_OF_ASC_NODE>48.5751</RA_OF_ASC_NODE><ARG_OF_PERICENTER>56.2325</ARG_OF_PERICENTER><MEAN_ANOMALY>304.0216</MEAN_ANOMALY></meanElements><tleParameters><EPHEMERIS_TYPE>0</EPHEMERIS_TYPE><CLASSIFICATION_TYPE>U</CLASSIFICATION_TYPE><NORAD_CAT_ID>62252</NORAD_CAT_ID><ELEMENT_SET_NO>999</ELEMENT_SET_NO><REV_AT_EPOCH>5802</REV_AT_EPOCH><BSTAR>.30255E-3</BSTAR><MEAN_MOTION_DOT>.207E-5</MEAN_MOTION_DOT><MEAN_MOTION_DDOT>0</MEAN_MOTION_DDOT></tleParameters></data></segment></body></omm>
<omm id="CCSDS_OMM_VERS" version="2.0">
<header><CREATION_DATE/><ORIGINATOR/></header><body><segment><metadata><OBJECT_NAME>QIANFAN-52</OBJECT_NAME><OBJECT_ID>2024-232S</OBJECT_ID><CENTER_NAME>EARTH</CENTER_NAME><REF_FRAME>TEME</REF_FRAME><TIME_SYSTEM>UTC</TIME_SYSTEM><MEAN_ELEMENT_THEORY>SGP4</MEAN_ELEMENT_THEORY></metadata><data><meanElements><EPOCH>2025-09-30T20:23:32.015040</EPOCH><MEAN_MOTION>13.50975040</MEAN_MOTION><ECCENTRICITY>.0016428</ECCENTRICITY><INCLINATION>88.9994</INCLINATION><RA_OF_ASC_NODE>48.4561</RA_OF_ASC_NODE><ARG_OF_PERICENTER>48.5124</ARG_OF_PERICENTER><MEAN_ANOMALY>311.7434</MEAN_ANOMALY></meanElements><tleParameters><EPHEMERIS_TYPE>0</EPHEMERIS_TYPE><CLASSIFICATION_TYPE>U</CLASSIFICATION_TYPE><NORAD_CAT_ID>62253</NORAD_CAT_ID><ELEMENT_SET_NO>999</ELEMENT_SET_NO><REV_AT_EPOCH>5810</REV_AT_EPOCH><BSTAR>.30302E-3</BSTAR><MEAN_MOTION_DOT>.208E-5</MEAN_MOTION_DOT><MEAN_MOTION_DDOT>0</MEAN_MOTION_DDOT></tleParameters></data></segment></body></omm>
<omm id="CCSDS_OMM_VERS" version="2.0">
<header><CREATION_DATE/><ORIGINATOR/></header><body><segment><metadata><OBJECT_NAME>QIANFAN-53</OBJECT_NAME><OBJECT_ID>2024-232T</OBJECT_ID><CENTER_NAME>EARTH</CENTER_NAME><REF_FRAME>TEME</REF_FRAME><TIME_SYSTEM>UTC</TIME_SYSTEM><MEAN_ELEMENT_THEORY>SGP4</MEAN_ELEMENT_THEORY></metadata><data><meanElements><EPOCH>2025-09-30T19:53:57.924096</EPOCH><MEAN_MOTION>13.50970821</MEAN_MOTION><ECCENTRICITY>.0015332</ECCENTRICITY><INCLINATION>89.0002</INCLINATION><RA_OF_ASC_NODE>48.5572</RA_OF_ASC_NODE><ARG_OF_PERICENTER>49.9747</ARG_OF_PERICENTER><MEAN_ANOMALY>310.2747</MEAN_ANOMALY></meanElements><tleParameters><EPHEMERIS_TYPE>0</EPHEMERIS_TYPE><CLASSIFICATION_TYPE>U</CLASSIFICATION_TYPE><NORAD_CAT_ID>62254</NORAD_CAT_ID><ELEMENT_SET_NO>999</ELEMENT_SET_NO><REV_AT_EPOCH>5806</REV_AT_EPOCH><BSTAR>.27036E-3</BSTAR><MEAN_MOTION_DOT>.187E-5</MEAN_MOTION_DOT><MEAN_MOTION_DDOT>0</MEAN_MOTION_DDOT></tleParameters></data></segment></body></omm>
<omm id="CCSDS_OMM_VERS" version="2.0">
<header><CREATION_DATE/><ORIGINATOR/></header><body><segment><metadata><OBJECT_NAME>QIANFAN-54</OBJECT_NAME><OBJECT_ID>2024-232U</OBJECT_ID><CENTER_NAME>EARTH</CENTER_NAME><REF_FRAME>TEME</REF_FRAME><TIME_SYSTEM>UTC</TIME_SYSTEM><MEAN_ELEMENT_THEORY>SGP4</MEAN_ELEMENT_THEORY></metadata><data><meanElements><EPOCH>2025-09-30T20:53:08.907072</EPOCH><MEAN_MOTION>13.50972865</MEAN_MOTION><ECCENTRICITY>.0003899</ECCENTRICITY><INCLINATION>88.9993</INCLINATION><RA_OF_ASC_NODE>48.2378</RA_OF_ASC_NODE><ARG_OF_PERICENTER>92.4861</ARG_OF_PERICENTER><MEAN_ANOMALY>267.6737</MEAN_ANOMALY></meanElements><tleParameters><EPHEMERIS_TYPE>0</EPHEMERIS_TYPE><CLASSIFICATION_TYPE>U</CLASSIFICATION_TYPE><NORAD_CAT_ID>62255</NORAD_CAT_ID><ELEMENT_SET_NO>999</ELEMENT_SET_NO><REV_AT_EPOCH>8957</REV_AT_EPOCH><BSTAR>.26527E-3</BSTAR><MEAN_MOTION_DOT>.183E-5</MEAN_MOTION_DOT><MEAN_MOTION_DDOT>0</MEAN_MOTION_DDOT></tleParameters></data></segment></body></omm>
<omm id="CCSDS_OMM_VERS" version="2.0">
<header><CREATION_DATE/><ORIGINATOR/></header><body><segment><metadata><OBJECT_NAME>QIANFAN-55</OBJECT_NAME><OBJECT_ID>2025-016A</OBJECT_ID><CENTER_NAME>EARTH</CENTER_NAME><REF_FRAME>TEME</REF_FRAME><TIME_SYSTEM>UTC</TIME_SYSTEM><MEAN_ELEMENT_THEORY>SGP4</MEAN_ELEMENT_THEORY></metadata><data><meanElements><EPOCH>2025-09-30T19:43:52.438080</EPOCH><MEAN_MOTION>13.50965944</MEAN_MOTION><ECCENTRICITY>.0016639</ECCENTRICITY><INCLINATION>88.9752</INCLINATION><RA_OF_ASC_NODE>110.7438</RA_OF_ASC_NODE><ARG_OF_PERICENTER>193.8096</ARG_OF_PERICENTER><MEAN_ANOMALY>166.2602</MEAN_ANOMALY></meanElements><tleParameters><EPHEMERIS_TYPE>0</EPHEMERIS_TYPE><CLASSIFICATION_TYPE>U</CLASSIFICATION_TYPE><NORAD_CAT_ID>62785</NORAD_CAT_ID><ELEMENT_SET_NO>999</ELEMENT_SET_NO><REV_AT_EPOCH>3734</REV_AT_EPOCH><BSTAR>.10355E-3</BSTAR><MEAN_MOTION_DOT>.79E-6</MEAN_MOTION_DOT><MEAN_MOTION_DDOT>0</MEAN_MOTION_DDOT></tleParameters></data></segment></body></omm>
<omm id="CCSDS_OMM_VERS" version="2.0">
<header><CREATION_DATE/><ORIGINATOR/></header><body><segment><metadata><OBJECT_NAME>QIANFAN-56</OBJECT_NAME><OBJECT_ID>2025-016B</OBJECT_ID><CENTER_NAME>EARTH</CENTER_NAME><REF_FRAME>TEME</REF_FRAME><TIME_SYSTEM>UTC</TIME_SYSTEM><MEAN_ELEMENT_THEORY>SGP4</MEAN_ELEMENT_THEORY></metadata><data><meanElements><EPOCH>2025-09-30T20:07:42.962016</EPOCH><MEAN_MOTION>13.50974093</MEAN_MOTION><ECCENTRICITY>.0015242</ECCENTRICITY><INCLINATION>88.9724</INCLINATION><RA_OF_ASC_NODE>110.5984</RA_OF_ASC_NODE><ARG_OF_PERICENTER>195.8015</ARG_OF_PERICENTER><MEAN_ANOMALY>164.2662</MEAN_ANOMALY></meanElements><tleParameters><EPHEMERIS_TYPE>0</EPHEMERIS_TYPE><CLASSIFICATION_TYPE>U</CLASSIFICATION_TYPE><NORAD_CAT_ID>62786</NORAD_CAT_ID><ELEMENT_SET_NO>999</ELEMENT_SET_NO><REV_AT_EPOCH>3739</REV_AT_EPOCH><BSTAR>.13233E-3</BSTAR><MEAN_MOTION_DOT>.97E-6</MEAN_MOTION_DOT><MEAN_MOTION_DDOT>0</MEAN_MOTION_DDOT></tleParameters></data></segment></body></omm>

</ndm>
