62250,QIANFAN-49,2024,106.59,-1.0,+,89.0,Active,0,LEO,PRC,China,Unknown,Unknown,Unknown,1 62250U 24232P   25273.88673834  .00000211  00000+0  30785-3 0  9993,2 62250  88.9999  48.5735 0015339  51.3100 308.9420 13.50975090 58000,13.5097509,0.0015339,LEO
62251,QIANFAN-50,2024,106.59,-1.0,+,89.0,Active,0,LEO,PRC,China,Unknown,Unknown,Unknown,1 62251U 24232Q   25270.87479844  .00000208  00000+0  30400-3 0  9995,2 62251  88.9997  48.8819 0017245  60.0492 300.2369 13.50969182 57623,13.50969182,0.0017245,LEO
62252,QIANFAN-51,2024,106.59,-1.0,+,89.0,Active,0,LEO,PRC,China,Unknown,Unknown,Unknown,1 62252U 24232R   25273.89495194  .00000207  00000+0  30255-3 0  9994,2 62252  88.9999  48.5751 0014612  56.2325 304.0216 13.50972587 58026,13.50972587,0.0014612,LEO
62253,QIANFAN-52,2024,106.59,-1.0,+,89.0,Active,0,LEO,PRC,China,Unknown,Unknown,Unknown,1 62253U 24232S   25273.84967610  .00000208  00000+0  30302-3 0  9991,2 62253  88.9994  48.4561 0016428  48.5124 311.7434 13.50975040 58101,13.5097504,0.0016428,LEO
62254,QIANFAN-53,2024,106.59,-1.0,+,89.0,Active,0,LEO,PRC,China,Unknown,Unknown,Unknown,1 62254U 24232T   25273.82914264  .00000187  00000+0  27036-3 0  9993,2 62254  89.0002  48.5572 0015332  49.9747 310.2747 13.50970821 58064,13.50970821,0.0015332,LEO
62255,QIANFAN-54,2024,106.59,-1.0,+,89.0,Active,0,LEO,PRC,China,Unknown,Unknown,Unknown,1 62255U 24232U   25273.87024198  .00000183  00000+0  26527-3 0  9997,2 62255  88.9993  48.2378 0003899  92.4861 267.6737 13.50972865 89572,13.50972865,0.0003899,LEO
62785,QIANFAN-55,2025,106.59,-1.0,+,88.98,Active,0,LEO,PRC,China,Unknown,Unknown,Unknown,1 62785U 25016A   25273.82213470  .00000079  00000+0  10355-3 0  9990,2 62785  88.9752 110.7438 0016639 193.8096 166.2602 13.50965944 37340,13.50965944,0.0016639,LEO
62786,QIANFAN-56,2025,106.59,-1.0,+,88.97,Active,0,LEO,PRC,China,Unknown,Unknown,Unknown,1 62786U 25016B   25273.83869169  .00000097  00000+0  13233-3 0  9992,2 62786  88.9724 110.5984 0015242 195.8015 164.2662 13.50974093 37390,13.50974093,0.0015242,LEO
